start=new Date('2022-10-07T00:00:00.000Z').valueOf();
sats=[{"CLASSIFICATION_TYPE":"U","FILE":"3594494","EPHEMERIS_TYPE":"0","GP_ID":"214333526","EPOCH":"2022-10-07T00:00:00.999648","COUNTRY_CODE":"US","SITE":"AFETR","TLE_LINE1":"1 52834U 22062E   22280.00001157 -.00000907  00000-0 -38895-4 0  9997","SEMIMAJOR_AXIS":"6917.832","OBJECT_TYPE":"PAYLOAD","BSTAR":"-0.00003889500000","OBJECT_NAME":"STARLINK-4108","MEAN_ANOMALY":"241.9952","PERIAPSIS":"538.679","ECCENTRICITY":"0.00014720","PERIOD":"95.437","ARG_OF_PERICENTER":"65.4561","DECAY_DATE":null,"LAUNCH_DATE":"2022-06-17","ELEMENT_SET_NO":"999","CENTER_NAME":"EARTH","APOAPSIS":"540.715","MEAN_MOTION":"15.08855871","RCS_SIZE":"LARGE","TIME_SYSTEM":"UTC","MEAN_MOTION_DOT":"-0.00000907","REF_FRAME":"TEME","REV_AT_EPOCH":"1712","OBJECT_ID":"2022-062E","TLE_LINE2":"2 52834  53.2145 244.1909 0001472  65.4561 241.9952 15.08855871 17125","NORAD_CAT_ID":"52834","MEAN_MOTION_DDOT":"0.0000000000000","MEAN_ELEMENT_THEORY":"SGP4","RA_OF_ASC_NODE":"244.1909","INCLINATION":"53.2145"},{"MEAN_MOTION":"15.08847103","TIME_SYSTEM":"UTC","RCS_SIZE":"LARGE","MEAN_MOTION_DOT":"-0.00015711","REF_FRAME":"TEME","REV_AT_EPOCH":"1711","OBJECT_ID":"2022-062F","TLE_LINE2":"2 52835  53.2156 244.1962 0001744  55.4275 272.0553 15.08847103 17110","NORAD_CAT_ID":"52835","MEAN_ELEMENT_THEORY":"SGP4","MEAN_MOTION_DDOT":"0.0000000000000","INCLINATION":"53.2156","RA_OF_ASC_NODE":"244.1962","ARG_OF_PERICENTER":"55.4275","DECAY_DATE":null,"LAUNCH_DATE":"2022-06-17","CENTER_NAME":"EARTH","ELEMENT_SET_NO":"999","APOAPSIS":"540.930","TLE_LINE1":"1 52835U 22062F   22280.00001157 -.00015711  00000-0 -97096-3 0  9994","SEMIMAJOR_AXIS":"6917.859","BSTAR":"-0.00097096000000","OBJECT_TYPE":"PAYLOAD","OBJECT_NAME":"STARLINK-4080","PERIAPSIS":"538.517","MEAN_ANOMALY":"272.0553","ECCENTRICITY":"0.00017440","PERIOD":"95.437","CLASSIFICATION_TYPE":"U","FILE":"3594494","EPHEMERIS_TYPE":"0","GP_ID":"214334035","EPOCH":"2022-10-07T00:00:00.999648","COUNTRY_CODE":"US","SITE":"AFETR"},{"CLASSIFICATION_TYPE":"U","FILE":"3594620","GP_ID":"214361343","EPHEMERIS_TYPE":"0","COUNTRY_CODE":"US","SITE":"AFETR","EPOCH":"2022-10-06T22:42:55.000224","SEMIMAJOR_AXIS":"6917.851","OBJECT_TYPE":"PAYLOAD","BSTAR":"-0.00072061000000","TLE_LINE1":"1 52836U 22062G   22279.94646991 -.00011741  00000-0 -72061-3 0  9991","OBJECT_NAME":"STARLINK-4043","ECCENTRICITY":"0.00014650","PERIAPSIS":"538.702","MEAN_ANOMALY":"0.5976","PERIOD":"95.437","ARG_OF_PERICENTER":"55.8954","DECAY_DATE":null,"LAUNCH_DATE":"2022-06-17","APOAPSIS":"540.729","CENTER_NAME":"EARTH","ELEMENT_SET_NO":"999","MEAN_MOTION":"15.08849672","RCS_SIZE":"LARGE","TIME_SYSTEM":"UTC","REV_AT_EPOCH":"130","MEAN_MOTION_DOT":"-0.00011741","REF_FRAME":"TEME","OBJECT_ID":"2022-062G","MEAN_MOTION_DDOT":"0.0000000000000","MEAN_ELEMENT_THEORY":"SGP4","RA_OF_ASC_NODE":"244.4393","INCLINATION":"53.2163","NORAD_CAT_ID":"52836","TLE_LINE2":"2 52836  53.2163 244.4393 0001465  55.8954   0.5976 15.08849672  1308"},{"TIME_SYSTEM":"UTC","RCS_SIZE":"LARGE","MEAN_MOTION":"15.08855281","REV_AT_EPOCH":"1712","REF_FRAME":"TEME","MEAN_MOTION_DOT":"-0.00010371","OBJECT_ID":"2022-062H","RA_OF_ASC_NODE":"244.2026","INCLINATION":"53.2157","MEAN_MOTION_DDOT":"0.0000000000000","MEAN_ELEMENT_THEORY":"SGP4","NORAD_CAT_ID":"52837","TLE_LINE2":"2 52837  53.2157 244.2026 0001985  33.6354 353.8457 15.08855281 17126","DECAY_DATE":null,"ARG_OF_PERICENTER":"33.6354","LAUNCH_DATE":"2022-06-17","APOAPSIS":"541.072","ELEMENT_SET_NO":"999","CENTER_NAME":"EARTH","BSTAR":"-0.00063417000000","OBJECT_TYPE":"PAYLOAD","SEMIMAJOR_AXIS":"6917.834","TLE_LINE1":"1 52837U 22062H   22280.00001157 -.00010371  00000-0 -63417-3 0  9993","MEAN_ANOMALY":"353.8457","PERIAPSIS":"538.325","ECCENTRICITY":"0.00019850","OBJECT_NAME":"STARLINK-4036","PERIOD":"95.437","CLASSIFICATION_TYPE":"U","FILE":"3594495","GP_ID":"214334049","EPHEMERIS_TYPE":"0","SITE":"AFETR","COUNTRY_CODE":"US","EPOCH":"2022-10-07T00:00:00.999648"},{"CENTER_NAME":"EARTH","ELEMENT_SET_NO":"999","APOAPSIS":"540.631","ARG_OF_PERICENTER":"69.8347","DECAY_DATE":null,"LAUNCH_DATE":"2022-06-17","OBJECT_ID":"2022-062J","TLE_LINE2":"2 52838  53.2164 244.1992 0001404  69.8347 292.4263 15.08868152 17613","NORAD_CAT_ID":"52838","MEAN_ELEMENT_THEORY":"SGP4","MEAN_MOTION_DDOT":"0.0000000000000","RA_OF_ASC_NODE":"244.1992","INCLINATION":"53.2164","MEAN_MOTION":"15.08868152","TIME_SYSTEM":"UTC","RCS_SIZE":"LARGE","MEAN_MOTION_DOT":"-0.00024799","REF_FRAME":"TEME","REV_AT_EPOCH":"1761","EPHEMERIS_TYPE":"0","GP_ID":"214333549","EPOCH":"2022-10-07T00:00:00.999648","COUNTRY_CODE":"US","SITE":"AFETR","CLASSIFICATION_TYPE":"U","FILE":"3594495","PERIOD":"95.436","TLE_LINE1":"1 52838U 22062J   22280.00001157 -.00024799  00000-0 -15442-2 0  9997","SEMIMAJOR_AXIS":"6917.794","BSTAR":"-0.00154420000000","OBJECT_TYPE":"PAYLOAD","OBJECT_NAME":"STARLINK-4092","PERIAPSIS":"538.688","ECCENTRICITY":"0.00014040","MEAN_ANOMALY":"292.4263"},{"OBJECT_NAME":"STARLINK-4048","PERIAPSIS":"538.308","ECCENTRICITY":"0.00020650","MEAN_ANOMALY":"91.8242","SEMIMAJOR_AXIS":"6917.872","BSTAR":"0.00189680000000","OBJECT_TYPE":"PAYLOAD","TLE_LINE1":"1 52839U 22062K   22279.94646991  .00030031  00000-0  18968-2 0  9990","PERIOD":"95.437","FILE":"3594620","CLASSIFICATION_TYPE":"U","COUNTRY_CODE":"US","SITE":"AFETR","EPOCH":"2022-10-06T22:42:55.000224","GP_ID":"214362471","EPHEMERIS_TYPE":"0","REV_AT_EPOCH":"130","MEAN_MOTION_DOT":"0.00030031","REF_FRAME":"TEME","MEAN_MOTION":"15.08842799","TIME_SYSTEM":"UTC","RCS_SIZE":"LARGE","MEAN_ELEMENT_THEORY":"SGP4","MEAN_MOTION_DDOT":"0.0000000000000","INCLINATION":"53.2182","RA_OF_ASC_NODE":"244.4373","NORAD_CAT_ID":"52839","TLE_LINE2":"2 52839  53.2182 244.4373 0002065  44.6538  91.8242 15.08842799  1303","OBJECT_ID":"2022-062K","LAUNCH_DATE":"2022-06-17","ARG_OF_PERICENTER":"44.6538","DECAY_DATE":null,"APOAPSIS":"541.165","ELEMENT_SET_NO":"999","CENTER_NAME":"EARTH"},{"APOAPSIS":"540.928","CENTER_NAME":"EARTH","ELEMENT_SET_NO":"999","DECAY_DATE":null,"ARG_OF_PERICENTER":"47.6451","LAUNCH_DATE":"2022-06-17","OBJECT_ID":"2022-062L","INCLINATION":"53.2179","RA_OF_ASC_NODE":"244.4380","MEAN_ELEMENT_THEORY":"SGP4","MEAN_MOTION_DDOT":"0.0000000000000","NORAD_CAT_ID":"52840","TLE_LINE2":"2 52840  53.2179 244.4380 0001702  47.6451  68.8562 15.08838278  1309","RCS_SIZE":"LARGE","TIME_SYSTEM":"UTC","MEAN_MOTION":"15.08838278","REV_AT_EPOCH":"130","REF_FRAME":"TEME","MEAN_MOTION_DOT":"0.00028756","GP_ID":"214361759","EPHEMERIS_TYPE":"0","SITE":"AFETR","COUNTRY_CODE":"US","EPOCH":"2022-10-06T22:42:55.000224","CLASSIFICATION_TYPE":"U","FILE":"3594620","PERIOD":"95.438","OBJECT_TYPE":"PAYLOAD","BSTAR":"0.00181760000000","SEMIMAJOR_AXIS":"6917.886","TLE_LINE1":"1 52840U 22062L   22279.94646991  .00028756  00000-0  18176-2 0  9994","PERIAPSIS":"538.573","MEAN_ANOMALY":"68.8562","ECCENTRICITY":"0.00017020","OBJECT_NAME":"STARLINK-4049"},{"LAUNCH_DATE":"2022-06-17","ARG_OF_PERICENTER":"37.5979","DECAY_DATE":null,"APOAPSIS":"541.113","ELEMENT_SET_NO":"999","CENTER_NAME":"EARTH","REV_AT_EPOCH":"1762","MEAN_MOTION_DOT":"0.00002391","REF_FRAME":"TEME","MEAN_MOTION":"15.08849909","TIME_SYSTEM":"UTC","RCS_SIZE":"LARGE","MEAN_ELEMENT_THEORY":"SGP4","MEAN_MOTION_DDOT":"0.0000000000000","INCLINATION":"53.2186","RA_OF_ASC_NODE":"244.1969","TLE_LINE2":"2 52841  53.2186 244.1969 0002020  37.5979  89.8549 15.08849909 17628","NORAD_CAT_ID":"52841","OBJECT_ID":"2022-062M","FILE":"3594496","CLASSIFICATION_TYPE":"U","COUNTRY_CODE":"US","SITE":"AFETR","EPOCH":"2022-10-07T00:00:00.999648","GP_ID":"214333555","EPHEMERIS_TYPE":"0","OBJECT_NAME":"STARLINK-4065","MEAN_ANOMALY":"89.8549","PERIAPSIS":"538.318","ECCENTRICITY":"0.00020200","SEMIMAJOR_AXIS":"6917.850","BSTAR":"0.00016822000000","OBJECT_TYPE":"PAYLOAD","TLE_LINE1":"1 52841U 22062M   22280.00001157  .00002391  00000-0  16822-3 0  9997","PERIOD":"95.437"},{"APOAPSIS":"541.014","CENTER_NAME":"EARTH","ELEMENT_SET_NO":"999","LAUNCH_DATE":"2022-06-17","ARG_OF_PERICENTER":"44.8082","DECAY_DATE":null,"MEAN_ELEMENT_THEORY":"SGP4","MEAN_MOTION_DDOT":"0.0000000000000","RA_OF_ASC_NODE":"244.2029","INCLINATION":"53.2173","NORAD_CAT_ID":"52842","TLE_LINE2":"2 52842  53.2173 244.2029 0001861  44.8082 322.6753 15.08846161 17612","OBJECT_ID":"2022-062N","REV_AT_EPOCH":"1761","MEAN_MOTION_DOT":"0.00002409","REF_FRAME":"TEME","MEAN_MOTION":"15.08846161","TIME_SYSTEM":"UTC","RCS_SIZE":"LARGE","COUNTRY_CODE":"US","SITE":"AFETR","EPOCH":"2022-10-07T00:00:00.999648","GP_ID":"214333563","EPHEMERIS_TYPE":"0","FILE":"3594496","CLASSIFICATION_TYPE":"U","PERIOD":"95.437","OBJECT_NAME":"STARLINK-4046","MEAN_ANOMALY":"322.6753","PERIAPSIS":"538.439","ECCENTRICITY":"0.00018610","SEMIMAJOR_AXIS":"6917.862","BSTAR":"0.00016938000000","OBJECT_TYPE":"PAYLOAD","TLE_LINE1":"1 52842U 22062N   22280.00001157  .00002409  00000-0  16938-3 0  9996"},{"APOAPSIS":"541.006","ELEMENT_SET_NO":"999","CENTER_NAME":"EARTH","ARG_OF_PERICENTER":"42.1892","DECAY_DATE":null,"LAUNCH_DATE":"2022-06-17","OBJECT_ID":"2022-062P","MEAN_ELEMENT_THEORY":"SGP4","MEAN_MOTION_DDOT":"0.0000000000000","RA_OF_ASC_NODE":"244.1904","INCLINATION":"53.2171","NORAD_CAT_ID":"52843","TLE_LINE2":"2 52843  53.2171 244.1904 0001863  42.1892 125.3032 15.08849069 17623","MEAN_MOTION":"15.08849069","RCS_SIZE":"LARGE","TIME_SYSTEM":"UTC","REV_AT_EPOCH":"1762","MEAN_MOTION_DOT":"0.00005922","REF_FRAME":"TEME","GP_ID":"214333627","EPHEMERIS_TYPE":"0","COUNTRY_CODE":"US","SITE":"AFETR","EPOCH":"2022-10-07T00:00:00.999648","CLASSIFICATION_TYPE":"U","FILE":"3594500","PERIOD":"95.437","SEMIMAJOR_AXIS":"6917.853","BSTAR":"0.00038977000000","OBJECT_TYPE":"PAYLOAD","TLE_LINE1":"1 52843U 22062P   22280.00001157  .00005922  00000-0  38977-3 0  9997","OBJECT_NAME":"STARLINK-4188","MEAN_ANOMALY":"125.3032","PERIAPSIS":"538.429","ECCENTRICITY":"0.00018630"}];
